[{"OBJECT_NAME":"ONEWEB-0354","OBJECT_ID":"2021-083AH","EPOCH":"2025-10-28T11:15:05.260032","MEAN_MOTION":13.207711,"ECCENTRICITY":0.00019314,"INCLINATION":87.92,"RA_OF_ASC_NODE":320.6481,"ARG_OF_PERICENTER":84.4861,"MEAN_ANOMALY":275.6492,"EPHEMERIS_TYPE":0,"CLASSIFICATION_TYPE":"U","NORAD_CAT_ID":49217,"ELEMENT_SET_NO":999,"REV_AT_EPOCH":20622,"BSTAR":0.00017355885,"MEAN_MOTION_DOT":8.4e-7,"MEAN_MOTION_DDOT":0},{"OBJECT_NAME":"ONEWEB-0355","OBJECT_ID":"2021-083AJ","EPOCH":"2025-10-28T04:03:53.710560","MEAN_MOTION":13.13469151,"ECCENTRICITY":0.0002067,"INCLINATION":87.9029,"RA_OF_ASC_NODE":6.3734,"ARG_OF_PERICENTER":97.8082,"MEAN_ANOMALY":262.3281,"EPHEMERIS_TYPE":0,"CLASSIFICATION_TYPE":"U","NORAD_CAT_ID":49218,"ELEMENT_SET_NO":999,"REV_AT_EPOCH":20044,"BSTAR":0.00094653842,"MEAN_MOTION_DOT":3.58e-6,"MEAN_MOTION_DDOT":0},{"OBJECT_NAME":"ONEWEB-0357","OBJECT_ID":"2021-083AK","EPOCH":"2025-10-28T11:10:32.545344","MEAN_MOTION":13.2077057,"ECCENTRICITY":0.00020433,"INCLINATION":87.92,"RA_OF_ASC_NODE":320.646,"ARG_OF_PERICENTER":93.0311,"MEAN_ANOMALY":267.1056,"EPHEMERIS_TYPE":0,"CLASSIFICATION_TYPE":"U","NORAD_CAT_ID":49219,"ELEMENT_SET_NO":999,"REV_AT_EPOCH":20622,"BSTAR":0.00014790647,"MEAN_MOTION_DOT":7.3e-7,"MEAN_MOTION_DDOT":0},{"OBJECT_NAME":"ONEWEB-0332","OBJECT_ID":"2021-090A","EPOCH":"2025-10-28T12:23:11.030496","MEAN_MOTION":13.14503587,"ECCENTRICITY":0.00018919,"INCLINATION":87.9007,"RA_OF_ASC_NODE":335.874,"ARG_OF_PERICENTER":104.3599,"MEAN_ANOMALY":255.7741,"EPHEMERIS_TYPE":0,"CLASSIFICATION_TYPE":"U","NORAD_CAT_ID":49279,"ELEMENT_SET_NO":999,"REV_AT_EPOCH":19714,"BSTAR":-0.00053659171,"MEAN_MOTION_DOT":-1.86e-6,"MEAN_MOTION_DDOT":0},{"OBJECT_NAME":"ONEWEB-0347","OBJECT_ID":"2021-090B","EPOCH":"2025-10-28T12:45:58.042656","MEAN_MOTION":13.20779056,"ECCENTRICITY":0.00017779,"INCLINATION":87.9194,"RA_OF_ASC_NODE":320.6459,"ARG_OF_PERICENTER":105.4979,"MEAN_ANOMALY":254.635,"EPHEMERIS_TYPE":0,"CLASSIFICATION_TYPE":"U","NORAD_CAT_ID":49280,"ELEMENT_SET_NO":999,"REV_AT_EPOCH":20046,"BSTAR":-0.0046570565,"MEAN_MOTION_DOT":-1.88e-5,"MEAN_MOTION_DDOT":0},{"OBJECT_NAME":"ONEWEB-0349","OBJECT_ID":"2021-090C","EPOCH":"2025-10-28T11:42:20.975328","MEAN_MOTION":13.20770295,"ECCENTRICITY":0.00019497,"INCLINATION":87.9191,"RA_OF_ASC_NODE":320.654,"ARG_OF_PERICENTER":93.6469,"MEAN_ANOMALY":266.4887,"EPHEMERIS_TYPE":0,"CLASSIFICATION_TYPE":"U","NORAD_CAT_ID":49281,"ELEMENT_SET_NO":999,"REV_AT_EPOCH":19924,"BSTAR":0.0001694184,"MEAN_MOTION_DOT":8.2e-7,"MEAN_MOTION_DDOT":0},{"OBJECT_NAME":"ONEWEB-0353","OBJECT_ID":"2021-090D","EPOCH":"2025-10-28T12:11:45.056832","MEAN_MOTION":13.1450421,"ECCENTRICITY":0.00018278,"INCLINATION":87.9009,"RA_OF_ASC_NODE":335.8581,"ARG_OF_PERICENTER":104.3763,"MEAN_ANOMALY":255.757,"EPHEMERIS_TYPE":0,"CLASSIFICATION_TYPE":"U","NORAD_CAT_ID":49282,"ELEMENT_SET_NO":999,"REV_AT_EPOCH":19714,"BSTAR":-0.00055903033,"MEAN_MOTION_DOT":-1.94e-6,"MEAN_MOTION_DDOT":0},{"OBJECT_NAME":"ONEWEB-0356","OBJECT_ID":"2021-090E","EPOCH":"2025-10-28T11:40:05.151936","MEAN_MOTION":13.2077084,"ECCENTRICITY":9.405e-5,"INCLINATION":87.9191,"RA_OF_ASC_NODE":320.6453,"ARG_OF_PERICENTER":89.9814,"MEAN_ANOMALY":270.1427,"EPHEMERIS_TYPE":0,"CLASSIFICATION_TYPE":"U","NORAD_CAT_ID":49283,"ELEMENT_SET_NO":999,"REV_AT_EPOCH":19924,"BSTAR":0.00015356615,"MEAN_MOTION_DOT":7.5e-7,"MEAN_MOTION_DDOT":0},{"OBJECT_NAME":"ONEWEB-0358","OBJECT_ID":"2021-090F","EPOCH":"2025-10-28T10:34:10.763904","MEAN_MOTION":13.20771796,"ECCENTRICITY":0.00017434,"INCLINATION":87.9203,"RA_OF_ASC_NODE":320.6527,"ARG_OF_PERICENTER":90.9314,"MEAN_ANOMALY":269.2019,"EPHEMERIS_TYPE":0,"CLASSIFICATION_TYPE":"U","NORAD_CAT_ID":49284,"ELEMENT_SET_NO":999,"REV_AT_EPOCH":19996,"BSTAR":9.91823e-7,"MEAN_MOTION_DOT":1.3e-7,"MEAN_MOTION_DDOT":0},{"OBJECT_NAME":"ONEWEB-0359","OBJECT_ID":"2021-090G","EPOCH":"2025-10-28T12:18:42.253056","MEAN_MOTION":13.20769114,"ECCENTRICITY":0.00019285,"INCLINATION":87.9192,"RA_OF_ASC_NODE":320.6411,"ARG_OF_PERICENTER":82.1733,"MEAN_ANOMALY":277.962,"EPHEMERIS_TYPE":0,"CLASSIFICATION_TYPE":"U","NORAD_CAT_ID":49285,"ELEMENT_SET_NO":999,"REV_AT_EPOCH":19995,"BSTAR":-0.00031150166,"MEAN_MOTION_DOT":-1.14e-6,"MEAN_MOTION_DDOT":0},{"OBJECT_NAME":"ONEWEB-0360","OBJECT_ID":"2021-090H","EPOCH":"2025-10-28T12:05:03.715872","MEAN_MOTION":13.20769059,"ECCENTRICITY":0.00019344,"INCLINATION":87.9191,"RA_OF_ASC_NODE":320.6521,"ARG_OF_PERICENTER":90.0271,"MEAN_ANOMALY":270.1084,"EPHEMERIS_TYPE":0,"CLASSIFICATION_TYPE":"U","NORAD_CAT_ID":49286,"ELEMENT_SET_NO":999,"REV_AT_EPOCH":19926,"BSTAR":-5.2379907e-5,"MEAN_MOTION_DOT":-8.0e-8,"MEAN_MOTION_DDOT":0},{"OBJECT_NAME":"ONEWEB-0361","OBJECT_ID":"2021-090J","EPOCH":"2025-10-28T11:37:47.789760","MEAN_MOTION":13.20781065,"ECCENTRICITY":0.00017286,"INCLINATION":87.9188,"RA_OF_ASC_NODE":320.6515,"ARG_OF_PERICENTER":92.8784,"MEAN_ANOMALY":267.2547,"EPHEMERIS_TYPE":0,"CLASSIFICATION_TYPE":"U","NORAD_CAT_ID":49287,"ELEMENT_SET_NO":999,"REV_AT_EPOCH":19971,"BSTAR":0.0031024496,"MEAN_MOTION_DOT":1.275e-5,"MEAN_MOTION_DDOT":0},{"OBJECT_NAME":"ONEWEB-0362","OBJECT_ID":"2021-090K","EPOCH":"2025-10-28T13:21:58.884192","MEAN_MOTION":13.19725387,"ECCENTRICITY":0.00021471,"INCLINATION":87.9236,"RA_OF_ASC_NODE":351.0743,"ARG_OF_PERICENTER":98.2865,"MEAN_ANOMALY":261.8511,"EPHEMERIS_TYPE":0,"CLASSIFICATION_TYPE":"U","NORAD_CAT_ID":49288,"ELEMENT_SET_NO":999,"REV_AT_EPOCH":19636,"BSTAR":1.586123e-5,"MEAN_MOTION_DOT":1.9e-7,"MEAN_MOTION_DDOT":0},{"OBJECT_NAME":"ONEWEB-0363","OBJECT_ID":"2021-090L","EPOCH":"2025-10-28T10:11:25.265472","MEAN_MOTION":13.20770998,"ECCENTRICITY":0.00015161,"INCLINATION":87.9194,"RA_OF_ASC_NODE":320.66,"ARG_OF_PERICENTER":89.5379,"MEAN_ANOMALY":270.5928,"EPHEMERIS_TYPE":0,"CLASSIFICATION_TYPE":"U","NORAD_CAT_ID":49289,"ELEMENT_SET_NO":999,"REV_AT_EPOCH":19971,"BSTAR":0.00024371253,"MEAN_MOTION_DOT":1.12e-6,"MEAN_MOTION_DDOT":0},{"OBJECT_NAME":"ONEWEB-0364","OBJECT_ID":"2021-090M","EPOCH":"2025-10-28T11:05:57.826176","MEAN_MOTION":13.20770501,"ECCENTRICITY":0.00017599,"INCLINATION":87.9199,"RA_OF_ASC_NODE":320.6783,"ARG_OF_PERICENTER":93.9468,"MEAN_ANOMALY":266.1866,"EPHEMERIS_TYPE":0,"CLASSIFICATION_TYPE":"U","NORAD_CAT_ID":49290,"ELEMENT_SET_NO":999,"REV_AT_EPOCH":20085,"BSTAR":0.00026484783,"MEAN_MOTION_DOT":1.21e-6,"MEAN_MOTION_DDOT":0},{"OBJECT_NAME":"ONEWEB-0365","OBJECT_ID":"2021-090N","EPOCH":"2025-10-28T13:35:37.768704","MEAN_MOTION":13.19725367,"ECCENTRICITY":0.0001946,"INCLINATION":87.9248,"RA_OF_ASC_NODE":351.0307,"ARG_OF_PERICENTER":99.7924,"MEAN_ANOMALY":260.3428,"EPHEMERIS_TYPE":0,"CLASSIFICATION_TYPE":"U","NORAD_CAT_ID":49291,"ELEMENT_SET_NO":999,"REV_AT_EPOCH":19587,"BSTAR":0.00016228126,"MEAN_MOTION_DOT":7.8e-7,"MEAN_MOTION_DDOT":0},{"OBJECT_NAME":"ONEWEB-0366","OBJECT_ID":"2021-090P","EPOCH":"2025-10-28T12:07:12.031104","MEAN_MOTION":13.14503214,"ECCENTRICITY":0.00018073,"INCLINATION":87.901,"RA_OF_ASC_NODE":335.877,"ARG_OF_PERICENTER":94.3643,"MEAN_ANOMALY":265.7693,"EPHEMERIS_TYPE":0,"CLASSIFICATION_TYPE":"U","NORAD_CAT_ID":49292,"ELEMENT_SET_NO":999,"REV_AT_EPOCH":19712,"BSTAR":-0.00046232865,"MEAN_MOTION_DOT":-1.59e-6,"MEAN_MOTION_DDOT":0}]
