ONEWEB-0354             
1 49217U 21083AH  25301.46881088  .00000084  00000+0  17356-3 0  9997
2 49217  87.9200 320.6481 0001931  84.4861 275.6492 13.20771100206229
ONEWEB-0355             
1 49218U 21083AJ  25301.16937165  .00000358  00000+0  94654-3 0  9993
2 49218  87.9029   6.3734 0002067  97.8082 262.3281 13.13469151200441
ONEWEB-0357             
1 49219U 21083AK  25301.46565446  .00000073  00000+0  14791-3 0  9994
2 49219  87.9200 320.6460 0002043  93.0311 267.1056 13.20770570206221
ONEWEB-0332             
1 49279U 21090A   25301.51609989 -.00000186  00000+0 -53659-3 0  9998
2 49279  87.9007 335.8740 0001891 104.3599 255.7741 13.14503587197144
ONEWEB-0347             
1 49280U 21090B   25301.53192179 -.00001880  00000+0 -46571-2 0  9996
2 49280  87.9194 320.6459 0001777 105.4979 254.6350 13.20779056200466
ONEWEB-0349             
1 49281U 21090C   25301.48774277  .00000082  00000+0  16942-3 0  9997
2 49281  87.9191 320.6540 0001949  93.6469 266.4887 13.20770295199243
ONEWEB-0353             
1 49282U 21090D   25301.50816038 -.00000194  00000+0 -55903-3 0  9999
2 49282  87.9009 335.8581 0001827 104.3763 255.7570 13.14504210197149
ONEWEB-0356             
1 49283U 21090E   25301.48617074  .00000075  00000+0  15357-3 0  9991
2 49283  87.9191 320.6453 0000940  89.9814 270.1427 13.20770840199248
ONEWEB-0358             
1 49284U 21090F   25301.44040236  .00000013  00000+0  99182-6 0  9991
2 49284  87.9203 320.6527 0001743  90.9314 269.2019 13.20771796199960
ONEWEB-0359             
1 49285U 21090G   25301.51298904 -.00000114  00000+0 -31150-3 0  9999
2 49285  87.9192 320.6411 0001928  82.1733 277.9620 13.20769114199957
ONEWEB-0360             
1 49286U 21090H   25301.50351523 -.00000008  00000+0 -52380-4 0  9997
2 49286  87.9191 320.6521 0001934  90.0271 270.1084 13.20769059199262
ONEWEB-0361             
1 49287U 21090J   25301.48458090  .00001275  00000+0  31024-2 0  9997
2 49287  87.9188 320.6515 0001728  92.8784 267.2547 13.20781065199714
ONEWEB-0362             
1 49288U 21090K   25301.55693153  .00000019  00000+0  15861-4 0  9995
2 49288  87.9236 351.0743 0002147  98.2865 261.8511 13.19725387196368
ONEWEB-0363             
1 49289U 21090L   25301.42459798  .00000112  00000+0  24371-3 0  9996
2 49289  87.9194 320.6600 0001516  89.5379 270.5928 13.20770998199719
ONEWEB-0364             
1 49290U 21090M   25301.46247484  .00000121  00000+0  26485-3 0  9997
2 49290  87.9199 320.6783 0001759  93.9468 266.1866 13.20770501200855
ONEWEB-0365             
1 49291U 21090N   25301.56640936  .00000078  00000+0  16228-3 0  9993
2 49291  87.9248 351.0307 0001946  99.7924 260.3428 13.19725367195873
ONEWEB-0366             
1 49292U 21090P   25301.50500036 -.00000159  00000+0 -46233-3 0  9995
2 49292  87.9010 335.8770 0001807  94.3643 265.7693 13.14503214197123
